NOAA 1 [-]              
1 04793U 70106A   23031.16051434 -.00000040  00000+0  23342-4 0  9992
2 04793 101.5252  93.9560 0031499 238.3060 135.1675 12.54011385386130
NOAA 2 (ITOS-D) [-]     
1 06235U 72082A   23031.47674678 -.00000011  00000+0  22540-3 0  9991
2 06235 101.9801  20.3440 0004087   2.2990 115.3784 12.53156897300539
NOAA 3 [-]              
1 06920U 73086A   23031.49176723 -.00000020  00000+0  19727-3 0  9990
2 06920 102.2351  18.9204 0006390 231.1225 242.6360 12.40352616229063
NOAA 4 [-]              
1 07529U 74089A   23031.53293812 -.00000027  00000+0  12019-3 0  9998
2 07529 101.9427  17.0709 0009145  28.8383  81.8372 12.53165130205119
NOAA 5 [-]              
1 09057U 76077A   23031.49174212 -.00000020  00000+0  18992-3 0  9991
2 09057 102.1348   2.3272 0009925  77.9184  31.5446 12.37779477101952
TIROS N [-]             
1 11060U 78096A   23031.12218448  .00000164  00000+0  99715-4 0  9992
2 11060  98.6052  83.4688 0010267 202.6594 157.4130 14.18477106503885
NOAA 6 [-]              
1 11416U 79057A   23031.52591680  .00000339  00000+0  13777-3 0  9998
2 11416  98.6592  47.6876 0009447 309.3959  50.6389 14.33901751274204
NOAA 7 [-]              
1 12553U 81059A   23031.10664647  .00000046  00000+0  45098-4 0  9991
2 12553  98.9686  82.9847 0011468 183.6792 176.4300 14.17373781150041
NOAA 8 [-]              
1 13923U 83022A   23031.50271498  .00000192  00000+0  93625-4 0  9998
2 13923  98.7049  26.3705 0013986 262.4926  97.4666 14.28894016 75236
NOAA 9 [-]              
1 15427U 84123A   23031.51630997  .00000179  00000+0  11376-3 0  9993
2 15427  99.0752  12.8245 0013977 237.6994 233.7253 14.16280300969129
NOAA 10 [-]             
1 16969U 86073A   23031.49572337  .00000179  00000+0  89206-4 0  9999
2 16969  98.5915  18.7214 0012423   9.6502 100.9896 14.28279379893383
NOAA 11 [-]             
1 19531U 88089A   23031.47515667  .00000090  00000+0  67261-4 0  9996
2 19531  98.4494  13.3020 0010112 239.0301 120.9880 14.15353506773076
NOAA 12 [-]             
1 21263U 91032A   23031.52944816  .00000115  00000+0  65815-4 0  9992
2 21263  98.5258  30.0795 0014321  36.1184 324.0961 14.26054783649230
NOAA 13 [-]             
1 22739U 93050A   23031.47950137  .00000179  00000+0  11823-3 0  9999
2 22739  98.5349   5.2460 0010426  54.4020 305.8123 14.12911843519256
NOAA 14 [-]             
1 23455U 94089A   23031.51333637  .00000062  00000+0  53884-4 0  9998
2 23455  98.4335  50.6945 0010057  34.7604 325.4225 14.14235837448949
NOAA 15 [B]             
1 25338U 98030A   23031.57081746  .00000172  00000+0  89710-4 0  9996
2 25338  98.6225  62.8603 0010203 358.4997   1.6151 14.26233236285787
NOAA 16 [-]             
1 26536U 00055A   23031.56489818  .00000071  00000+0  60334-4 0  9997
2 26536  98.6058  87.2329 0009698 230.2889 129.7430 14.13381207449570
NOAA 17 [-]             
1 27453U 02032A   23031.53724720  .00000179  00000+0  94912-4 0  9992
2 27453  98.7004 339.4431 0011353 334.0632  25.9977 14.25206608 71340
NOAA 18 [B]             
1 28654U 05018A   23031.53397171  .00000178  00000+0  11954-3 0  9992
2 28654  98.9250 106.5208 0014821  49.8348 310.4119 14.12851429912181
NOAA 19 [+]             
1 33591U 09005A   23031.56153504  .00000173  00000+0  11841-3 0  9991
2 33591  99.1211  75.1801 0012975 266.8460  93.1227 14.12677890720394
SUOMI NPP [+]           
1 37849U 11061A   23031.57967795  .00000102  00000+0  69238-4 0  9998
2 37849  98.7566 332.2027 0001148  70.4241  34.7226 14.19543061583560
NOAA 20 [+]             
1 43013U 17073A   23031.52270273  .00000091  00000+0  63787-4 0  9990
2 43013  98.7405 331.7402 0001613  93.5138 266.6223 14.19551850269582
NOAA 21 (JPSS-2) [+]    
1 54234U 22150A   23031.54032465  .00000092  00000+0  64326-4 0  9991
2 54234  98.7045 331.7242 0001116  83.6879 276.4425 14.19563923 11662
